GSAT0217 (GALILEO 21)   
1 43057U 17079C   21177.87941716 -.00000024  00000-0  00000-0 0  9991
2 43057  55.9836 271.5113 0003733 279.2479  80.7644  1.70474651 22023
GSAT0218 (GALILEO 22)   
1 43058U 17079D   21178.09943083 -.00000025  00000-0  00000-0 0  9997
2 43058  55.9838 271.5027 0004936 263.9268  96.0718  1.70474606 22057
GOES 17                 
1 43226U 18022A   21179.38869078  .00000087  00000-0  00000+0 0  9993
2 43226   0.0627 240.7243 0000510 234.6075 164.0844  1.00271562 12238
GSAT0221 (GALILEO 25)   
1 43564U 18060A   21177.99811507 -.00000090  00000-0  00000-0 0  9995
2 43564  57.0221  30.8260 0002088 294.1024  65.9301  1.70475591 18204
GSAT0222 (GALILEO 26)   
1 43565U 18060B   21176.45821247 -.00000085  00000-0  00000+0 0  9991
2 43565  57.0229  30.8679 0002060 313.2115  46.8302  1.70475537 18222
GSAT0219 (GALILEO 23)   
1 43566U 18060C   21177.26536959 -.00000088  00000-0  00000-0 0  9999
2 43566  57.0244  30.8479 0001778 320.3918  39.6519  1.70475601 18214
GSAT0220 (GALILEO 24)   
1 43567U 18060D   21178.07180048 -.00000091  00000-0  00000-0 0  9998
2 43567  57.0245  30.8256 0001631 309.8890  50.1508  1.70475438 18212
BEIDOU-3 M13            
1 43622U 18072A   21178.41911564 -.00000003  00000-0  00000+0 0  9998
2 43622  55.2900 123.2934 0008353 290.4146 333.0094  1.86231882 18830
BEIDOU-3 M14            
1 43623U 18072B   21178.74548249 -.00000001  00000-0  00000+0 0  9999
2 43623  55.2935 123.2759 0006659 311.1423 261.3297  1.86231882 18849
GPS BIII-1              
1 43873U 18109A   21178.68109212  .00000037  00000-0  00000-0 0  9992
2 43873  55.0387 163.8948 0013477 201.5116 156.8813  2.00557000 18653
METEOR-M2 2             
1 44387U 19038A   21179.29516633 -.00000047  00000-0 -12673-5 0  9999
2 44387  98.6700 138.9752 0000827 160.9956 199.1271 14.23688937103012
GPS BIII-2              
1 44506U 19056A   21179.31387442 -.00000093  00000-0  00000+0 0  9994
2 44506  55.4881  43.1672 0015442 173.2677 181.1241  2.00565846 13664
BEIDOU-3 M23            
1 44542U 19061A   21178.68748563  .00000005  00000-0  10000-3 0  9991
2 44542  54.7033 244.1780 0007768 321.2427 316.7901  1.86231277 11970
BEIDOU-3 M24            
1 44543U 19061B   21178.30537001  .00000010  00000-0  10000-3 0  9990
2 44543  54.6999 244.1599 0005475 304.2502 348.4630  1.86231719 11968
BEIDOU-3 M21            
1 44793U 19078A   21179.18663789 -.00000106  00000-0  10000-3 0  9992
2 44793  55.0535   2.8055 0006632  14.0995 343.7996  1.86232215 10841
BEIDOU-3 M22            
1 44794U 19078B   21178.24956278 -.00000105  00000-0  00000+0 0  9991
2 44794  55.0288   2.8358 0004639  16.3153 344.3254  1.86232586 10833
ELEKTRO-L 3             
1 44903U 19095A   21179.09285503 -.00000107  00000-0  00000+0 0  9994
2 44903   0.0632 114.0254 0000265  76.2933 195.4773  1.00273263  5514
GPS BIII-3              
1 45854U 20041A   21178.40394156 -.00000032  00000-0  00000-0 0  9990
2 45854  55.2688 100.4699 0011538 159.5551 200.4886  2.00565789  7614
GPS BIII-4              
1 46826U 20078A   21177.44840863 -.00000033  00000-0  00000-0 0  9995
2 46826  54.8152 284.5251 0007861 177.9536 182.0800  2.00554410  5072
